LUCH 5V (SDCM/PRN 141)  
1 39727U 14023A   22276.84495402 -.00000279  00000+0  00000+0 0  9990
2 39727   1.7515  76.5084 0003293 128.7608 206.1625  1.00268234548946
GPS BIIF-6  (PRN 06)    
1 39741U 14026A   22276.82174516 -.00000082  00000+0  00000+0 0  9999
2 39741  56.6108  24.0170 0026536 305.1413  54.6247  2.00580699 61414
COSMOS 2500 (755)       
1 40001U 14032A   22277.16686433 -.00000077  00000+0  00000+0 0  9995
2 40001  65.7717 359.3551 0008000 197.2490 202.4643  2.13102435 64643
GPS BIIF-7  (PRN 09)    
1 40105U 14045A   22276.40601220  .00000019  00000+0  00000+0 0  9996
2 40105  54.7132 142.4938 0023315 111.3248 249.0084  2.00554539 58945
GSAT0201 (PRN E18)      
1 40128U 14050A   22276.00914013 -.00000061  00000+0  00000+0 0  9998
2 40128  50.2091 327.9965 1619865 127.9610 247.8291  1.85519048 53212
GSAT0202 (PRN E14)      
1 40129U 14050B   22276.80876099 -.00000060  00000+0  00000+0 0  9997
2 40129  50.2321 327.0281 1617046 128.8003 246.8026  1.85519707 55361
IRNSS-1C                
1 40269U 14061A   22277.56809649 -.00000173  00000+0  00000+0 0  9990
2 40269   3.1900 124.3232 0019531   9.2674 167.1746  1.00267578 29278
GPS BIIF-8  (PRN 03)    
1 40294U 14068A   22276.77186644  .00000028  00000+0  00000+0 0  9998
2 40294  55.9008  83.6589 0043076  59.5216 300.9353  2.00578874 58080
COSMOS 2501 (702K)      
1 40315U 14075A   22277.01450738  .00000031  00000+0  00000+0 0  9990
2 40315  63.6768 237.3684 0019223 212.1128 239.2530  2.13101429 61046
GPS BIIF-9  (PRN 26)    
1 40534U 15013A   22276.42018011  .00000034  00000+0  00000+0 0  9997
2 40534  53.6414 260.2201 0071366  19.9355 340.3399  2.00575424 54693
GSAT0203 (PRN E26)      
1 40544U 15017A   22274.79042905 -.00000081  00000+0  00000+0 0  9992
2 40544  56.8280  18.4699 0003645 225.3191 134.6707  1.70476087 46116
GSAT0204 (PRN E22)      
1 40545U 15017B   22274.45680930 -.00000080  00000+0  00000+0 0  9991
2 40545  56.8337  18.4919 0003870 210.0452 149.9524  1.70475583  9155
IRNSS-1D                
1 40547U 15018A   22276.86876208 -.00000285  00000+0  00000+0 0  9993
2 40547  28.7567 263.3219 0019339 191.0708 342.6737  1.00271543 27435
BEIDOU 17 (C31)         
1 40549U 15019A   22277.61598300 -.00000155  00000+0  00000+0 0  9990
2 40549  51.6974 311.4871 0038579 198.3671 181.0376  1.00273765 27532
GPS BIIF-10 (PRN 08)    
1 40730U 15033A   22276.57708807 -.00000040  00000+0  00000+0 0  9990
2 40730  55.1164 322.3206 0075322   7.5171 352.6569  2.00572459 52867
BEIDOU 18 (C57)         
1 40748U 15037A   22277.28633918 -.00000090  00000+0  00000+0 0  9997
2 40748  55.8251 348.0839 0000908  19.1356  32.6675  1.86233523 48945
BEIDOU 19 (C58)         
1 40749U 15037B   22277.47489147 -.00000090  00000+0  00000+0 0  9992
2 40749  55.8280 348.0671 0003296 296.0017  16.3987  1.86233147 48931
GSAT0205 (PRN E24)      
1 40889U 15045A   22276.57046418  .00000027  00000+0  00000+0 0  9995
2 40889  55.5589 258.9755 0004259 351.8371   8.1459  1.70473016 43954
GSAT0206 (PRN E30)      
1 40890U 15045B   22275.61804704  .00000032  00000+0  00000+0 0  9997
2 40890  55.5590 258.9975 0003184 326.2709  33.6988  1.70473085 43966
BEIDOU 20 (C18)         
1 40938U 15053A   22276.96854872 -.00000106  00000+0  00000+0 0  9992
2 40938  51.3361 274.6223 0045872 200.4728 342.5193  1.00267601 25782
GPS BIIF-11 (PRN 10)    
1 41019U 15062A   22276.62662737  .00000027  00000+0  00000+0 0  9994
2 41019  55.8883  83.5098 0081256 217.4034 142.0604  2.00562427 50707
GSAT-15 (GAGAN/PRN 139) 
1 41028U 15065A   22277.55396767 -.00000272  00000+0  00000+0 0  9990
2 41028   0.0537  90.8610 0002457  62.7767 152.5301  1.00270952 25302
GSAT0209 (PRN E09)      
1 41174U 15079A   22276.37877084  .00000029  00000+0  00000+0 0  9991
2 41174  55.1824 138.4355 0002498 336.8451  23.2362  1.70473975 41710
GSAT0208 (PRN E08)      
1 41175U 15079B   22276.01167368  .00000030  00000+0  00000+0 0  9992
2 41175  55.1808 138.4441 0002058 345.9216  14.1652  1.70474040 42122
IRNSS-1E                
1 41241U 16003A   22277.46724205 -.00000290  00000+0  00000+0 0  9992
2 41241  30.2204  82.9207 0020711 178.6874  31.6141  1.00274115 24648
GPS BIIF-12 (PRN 32)    
1 41328U 16007A   22276.71450011  .00000019  00000+0  00000+0 0  9998
2 41328  54.9277 143.1791 0062835 229.8040 129.7278  2.00565666 48711
COSMOS 2514 (751)       
1 41330U 16008A   22277.34445311 -.00000078  00000+0  00000+0 0  9995
2 41330  65.5699 359.0147 0011908 210.1768 149.7987  2.13102477 51813
IRNSS-1F                
1 41384U 16015A   22276.78660362  .00000149  00000+0  00000+0 0  9992
2 41384   2.3251 148.9543 0018241 179.8542 359.2060  1.00274139 24098
BEIDOU IGSO-6 (C13)     
1 41434U 16021A   22277.34304090 -.00000137  00000+0  00000+0 0  9999
2 41434  58.2615  51.7097 0045619 215.1432 323.9840  1.00262162 23922
IRNSS-1G                
1 41469U 16027A   22277.59514494 -.00000349  00000+0  00000+0 0  9996
2 41469   2.2457 151.5414 0002378 359.0076 206.4759  1.00266035 23626
GSAT0211 (PRN E02)      
1 41549U 16030A   22274.95731351  .00000035  00000+0  00000+0 0  9990
2 41549  55.7050 258.9600 0004738 309.9897  49.9575  1.70474579 39582
GSAT0210 (PRN E01)      
1 41550U 16030B   22275.24990203  .00000034  00000+0  00000+0 0  9997
2 41550  55.7043 258.9534 0004602 283.2564  76.6817  1.70474590 39586
COSMOS 2516 (753)       
1 41554U 16032A   22276.72395715  .00000037  00000+0  00000+0 0  9997
2 41554  63.9029 237.6857 0014923 216.4391 292.4751  2.13106445 49406
BEIDOU-2 G7 (C03)       
1 41586U 16037A   22277.62878683 -.00000367  00000+0  00000+0 0  9994
2 41586   1.6140  68.2251 0007961 355.0324 286.9884  1.00271317 23234
E 117 W B (WAAS/PRN 131)
1 41589U 16038B   22277.56554767 -.00000026  00000+0  00000+0 0  9997
2 41589   0.0198  42.9565 0000352 261.1433 155.7505  1.00270807 23152
GSAT0207 (PRN E07)      
1 41859U 16069A   22276.08600030  .00000029  00000+0  00000+0 0  9994
2 41859  54.8433 138.5982 0002242 310.6677  49.4052  1.70472655 36338
GSAT0212 (PRN E03)      
1 41860U 16069B   22275.35282581  .00000031  00000+0  00000+0 0  9995
2 41860  54.8402 138.6159 0001967   8.5135 351.5835  1.70472682 36570
GSAT0213 (PRN E04)      
1 41861U 16069C   22276.89129405  .00000029  00000+0  00000+0 0  9998
2 41861  54.8432 138.5785 0001900 265.5631  94.5079  1.70472857 36591
GSAT0214 (PRN E05)      
1 41862U 16069D   22275.27869346  .00000031  00000+0  00000+0 0  9998
2 41862  54.8409 138.6178 0001059 273.2954  86.7863  1.70472750 36565
SES-15 (WAAS/PRN 133)   
1 42709U 17026A   22276.67574564  .00000049  00000+0  00000+0 0  9992
2 42709   0.0093 297.5102 0000445 215.1189 333.8492  1.00268331 20583
QZS-2 (QZSS/PRN 184)    
1 42738U 17028A   22277.29817890 -.00000173  00000+0  00000+0 0  9996
2 42738  41.5978 262.6305 0748507 270.4994  86.7061  1.00257768 19587
QZS-3 (QZSS/PRN 189)    
1 42917U 17048A   22277.02150073 -.00000360  00000+0  00000+0 0  9999
2 42917   0.0515 193.3970 0001449 359.8461 314.2483  1.00268696 18813
COSMOS 2522 (752)       
1 42939U 17055A   22277.38430918  .00000027  00000+0  00000+0 0  9998
2 42939  64.1365 238.0899 0009721 245.6564 264.8596  2.13102109 39173
QZS-4 (QZSS/PRN 185)    
1 42965U 17062A   22276.66530418 -.00000322  00000+0  00000+0 0  9990
2 42965  40.7431   0.7335 0748665 269.8423 120.1779  1.00276580 18257
BEIDOU-3 M1 (C19)       
1 43001U 17069A   22276.27896420  .00000046  00000+0  00000+0 0  9996
2 43001  55.6168 108.0704 0007671 295.7077 243.6141  1.86231768 33402
BEIDOU-3 M2 (C20)       
1 43002U 17069B   22277.31166536  .00000052  00000+0  00000+0 0  9998
2 43002  55.6159 108.0717 0006145 327.2192 227.3443  1.86231337 33418
GSAT0215 (PRN E21)      
1 43055U 17079A   22275.76843779  .00000032  00000+0  00000+0 0  9993
2 43055  55.6805 258.7686 0004028 279.0418  80.9026  1.70473800 29911
GSAT0216 (PRN E25)      
1 43056U 17079B   22276.64716915  .00000027  00000+0  00000+0 0  9997
2 43056  55.6803 258.7441 0005712 280.4034  79.5217  1.70473920 29919
GSAT0217 (PRN E27)      
1 43057U 17079C   22275.69426590  .00000032  00000+0  00000+0 0  9995
2 43057  55.6791 258.7700 0005236 290.0838  69.8497  1.70473903 29917
GSAT0218 (PRN E31)      
1 43058U 17079D   22274.15454528  .00000035  00000+0  00000+0 0  9991
2 43058  55.6800 258.8098 0006174 276.5170  83.3992  1.70473894 29910
BEIDOU-3 M3 (C27)       
1 43107U 18003A   22276.84762919 -.00000090  00000+0  00000+0 0  9990
2 43107  55.2772 348.9679 0003760  70.5025 339.2421  1.86232594 32173
BEIDOU-3 M4 (C28)       
1 43108U 18003B   22276.25701547 -.00000089  00000+0  00000+0 0  9994
2 43108  55.2707 348.9768 0003875 239.0318 178.0145  1.86231052 32164
BEIDOU-3 M5 (C21)       
1 43207U 18018A   22276.61635225  .00000048  00000+0  00000+0 0  9993
2 43207  55.5751 108.1696 0004570   6.3190 353.7535  1.86231709 31554
BEIDOU-3 M6 (C22)       
1 43208U 18018B   22277.21999320  .00000051  00000+0  00000+0 0  9994
2 43208  55.5749 108.1541 0005477 311.4339  48.5869  1.86231689 31560
BEIDOU-3 M7 (C29)       
1 43245U 18029A   22276.16026477 -.00000086  00000+0  00000+0 0  9993
2 43245  55.1870 346.7525 0001060 200.2781  19.1353  1.86232800 30695
BEIDOU-3 M8 (C30)       
1 43246U 18029B   22276.11586666 -.00000086  00000+0  10000-3 0  9995
2 43246  55.1833 346.7836 0002893 353.4066 242.8607  1.86232986 30683
IRNSS-1I                
1 43286U 18035A   22276.56909958  .00000097  00000+0  00000+0 0  9994
2 43286  29.3098  95.5942 0020790 177.4913 359.1162  1.00270947 16510
COSMOS 2527 (756)       
1 43508U 18053A   22276.90965355  .00000066  00000+0  00000+0 0  9998
2 43508  64.9910 119.2025 0007245 217.6242 320.8159  2.13102575 33452
BEIDOU IGSO-7 (C16)     
1 43539U 18057A   22277.63076993 -.00000165  00000+0  00000+0 0  9999
2 43539  55.0912 174.7666 0051899 227.5476 312.5723  1.00277441 15601
GSAT0221 (PRN E15)      
1 43564U 18060A   22273.46681673 -.00000077  00000+0  00000+0 0  9997
2 43564  57.2093  18.3484 0003137 247.3221 112.6650  1.70476055 26052
